SWARM A                 
1 39452U 13067B   26160.08947318  .00009391  00000+0  16234-3 0  9995
2 39452  87.3329  59.2492 0002990  92.3780 267.7824 15.50789568704996
SWARM C                 
1 39453U 13067C   26160.08935863  .00009292  00000+0  16061-3 0  9996
2 39453  87.3329  57.8304 0002960  92.4870 267.6729 15.50791984704955
BRITE-CA1 (TORONTO)     
1 40020U 14033L   26160.15620816  .00000625  00000+0  10175-3 0  9990
2 40020  97.9729 289.2326 0077424 303.1796  56.2002 14.72665540641035
OCO 2                   
1 40059U 14035A   26160.12112550  .00000369  00000+0  92008-4 0  9993
2 40059  98.2016 101.5372 0001485  86.9081 273.2288 14.57104571634870
BRITE-PL2 (HEWELIUSZ)   
1 40119U 14049B   26160.20533863  .00001945  00000+0  18502-3 0  9995
2 40119  97.9089 272.1446 0015170 132.2094 228.0416 14.94568381640259
MMS 1                   
1 40482U 15011A   26160.25003471 -.00000023  00000+0  00000+0 0  9997
2 40482  72.1304 348.8969 8327313 167.2909 208.9231  0.28306420  1387
MMS 2                   
1 40483U 15011B   26160.25003471 -.00000023  00000+0  00000+0 0  9998
2 40483  72.1305 348.8990 8328096 167.2965 208.9115  0.28306434  1380
MMS 3                   
1 40484U 15011C   26160.25003471 -.00000023  00000+0  00000+0 0  9999
2 40484  72.1336 348.9036 8327284 167.2910 208.9079  0.28306391  1386
MMS 4                   
1 40485U 15011D   26160.25003471 -.00000023  00000+0  00000+0 0  9990
2 40485  72.1298 348.8993 8326888 167.2988 208.8963  0.28306374  1381
ASTROSAT                
1 40930U 15052A   26159.81678720  .00001613  00000+0  11451-3 0  9996
2 40930   5.9954 215.6120 0008532 275.6517  84.2638 14.82493922578586
DAMPE                   
1 41173U 15078A   26160.19345602  .00001540  00000+0  54305-4 0  9992
2 41173  97.4563 165.6215 0013732 101.6870 258.5913 15.30765886583320
PISAT                   
1 41784U 16059B   26160.03821755  .00000816  00000+0  14654-3 0  9998
2 41784  97.8178 160.8413 0027806 229.6933 130.1843 14.68969159518547
HXMT (HUIYAN)           
1 42758U 17034A   26160.17500949  .00003866  00000+0  19393-3 0  9991
2 42758  43.0132 227.6541 0030177  94.2847 266.1451 15.18421135496443
FLYING LAPTOP           
1 42831U 17042G   26160.18646578  .00002971  00000+0  23584-3 0  9995
2 42831  97.4658 316.0298 0019150 147.7606 212.4793 15.01092033485251
ZHANGHENG 1-01 (CSES-1) 
1 43194U 18015C   26160.17739920  .00005511  00000+0  25306-3 0  9999
2 43194  97.6867 325.6773 0017146 296.6064  63.3414 15.20708237463426
SALSAT                  
1 46495U 20068K   26159.90359286  .00007690  00000+0  27004-3 0  9996
2 46495  97.8856 162.4647 0008807 341.8369  18.2554 15.29680035314091
IXPE                    
1 49954U 21121A   26160.16670139  .00010057  00000+0  54252-3 0  9999
2 49954   0.2319  17.7953 0007219 314.9774 193.1784 15.10175661  5263
SMILE                   
1 69123U 26109A   26144.65318427 -.00001976  00000+0 -42379-3 0  9994
2 69123  70.0007 229.2745 0009123 259.5159 100.4951 14.57062785   802
