OBJECT_NAME,OBJECT_ID,EPOCH,MEAN_MOTION,ECCENTRICITY,INCLINATION,RA_OF_ASC_NODE,ARG_OF_PERICENTER,MEAN_ANOMALY,EPHEMERIS_TYPE,CLASSIFICATION_TYPE,NORAD_CAT_ID,ELEMENT_SET_NO,REV_AT_EPOCH,BSTAR,MEAN_MOTION_DOT,MEAN_MOTION_DDOT
SWARM A,2013-067B,2026-06-09T02:08:50.482752,15.50789568,.000299,87.3329,59.2492,92.3780,267.7824,0,U,39452,999,70499,.16234E-3,.9391E-4,0
SWARM C,2013-067C,2026-06-09T02:08:40.585632,15.50791984,.000296,87.3329,57.8304,92.4870,267.6729,0,U,39453,999,70495,.16061E-3,.9292E-4,0
BRITE-CA1 (TORONTO),2014-033L,2026-06-09T03:44:56.385024,14.72665540,.0077424,97.9729,289.2326,303.1796,56.2002,0,U,40020,999,64103,.10175E-3,.625E-5,0
OCO 2,2014-035A,2026-06-09T02:54:25.243200,14.57104571,.0001485,98.2016,101.5372,86.9081,273.2288,0,U,40059,999,63487,.92008E-4,.369E-5,0
BRITE-PL2 (HEWELIUSZ),2014-049B,2026-06-09T04:55:41.257632,14.94568381,.001517,97.9089,272.1446,132.2094,228.0416,0,U,40119,999,64025,.18502E-3,.1945E-4,0
MMS 1,2015-011A,2026-06-09T06:00:02.998944,0.28306420,.8327313,72.1304,348.8969,167.2909,208.9231,0,U,40482,999,138,0,-.23E-6,0
MMS 2,2015-011B,2026-06-09T06:00:02.998944,0.28306434,.8328096,72.1305,348.8990,167.2965,208.9115,0,U,40483,999,138,0,-.23E-6,0
MMS 3,2015-011C,2026-06-09T06:00:02.998944,0.28306391,.8327284,72.1336,348.9036,167.2910,208.9079,0,U,40484,999,138,0,-.23E-6,0
MMS 4,2015-011D,2026-06-09T06:00:02.998944,0.28306374,.8326888,72.1298,348.8993,167.2988,208.8963,0,U,40485,999,138,0,-.23E-6,0
ASTROSAT,2015-052A,2026-06-08T19:36:10.414080,14.82493922,.0008532,5.9954,215.6120,275.6517,84.2638,0,U,40930,999,57858,.11451E-3,.1613E-4,0
DAMPE,2015-078A,2026-06-09T04:38:34.600128,15.30765886,.0013732,97.4563,165.6215,101.6870,258.5913,0,U,41173,999,58332,.54305E-4,.154E-4,0
PISAT,2016-059B,2026-06-09T00:55:01.996320,14.68969159,.0027806,97.8178,160.8413,229.6933,130.1843,0,U,41784,999,51854,.14654E-3,.816E-5,0
HXMT (HUIYAN),2017-034A,2026-06-09T04:12:00.819936,15.18421135,.0030177,43.0132,227.6541,94.2847,266.1451,0,U,42758,999,49644,.19393E-3,.3866E-4,0
FLYING LAPTOP,2017-042G,2026-06-09T04:28:30.643392,15.01092033,.001915,97.4658,316.0298,147.7606,212.4793,0,U,42831,999,48525,.23584E-3,.2971E-4,0
ZHANGHENG 1-01 (CSES-1),2018-015C,2026-06-09T04:15:27.290880,15.20708237,.0017146,97.6867,325.6773,296.6064,63.3414,0,U,43194,999,46342,.25306E-3,.5511E-4,0
SALSAT,2020-068K,2026-06-08T21:41:10.423104,15.29680035,.0008807,97.8856,162.4647,341.8369,18.2554,0,U,46495,999,31409,.27004E-3,.769E-4,0
IXPE,2021-121A,2026-06-09T04:00:03.000096,15.10175661,.0007219,0.2319,17.7953,314.9774,193.1784,0,U,49954,999,526,.54252E-3,.10057E-3,0
SMILE,2026-109A,2026-05-24T15:40:35.120928,14.57062785,.00091232,70.0007,229.2745,259.5159,100.4951,0,U,69123,999,80,-.42378883E-3,-.1976E-4,0
